[{"OBJECT_NAME":"STARLINK-31670","OBJECT_ID":"2024-071G","EPOCH":"2025-08-04T03:31:45.760224","MEAN_MOTION":15.27580004,"ECCENTRICITY":0.000102,"INCLINATION":43.003,"RA_OF_ASC_NODE":139.7153,"ARG_OF_PERICENTER":268.9503,"MEAN_ANOMALY":91.1231,"EPHEMERIS_TYPE":0,"CLASSIFICATION_TYPE":"U","NORAD_CAT_ID":59490,"ELEMENT_SET_NO":999,"REV_AT_EPOCH":7480,"BSTAR":1.0076e-5,"MEAN_MOTION_DOT":1.5e-7,"MEAN_MOTION_DDOT":0},{"OBJECT_NAME":"STARLINK-31712","OBJECT_ID":"2024-071H","EPOCH":"2025-08-04T03:33:35.477856","MEAN_MOTION":15.2760243,"ECCENTRICITY":0.0002256,"INCLINATION":43.0027,"RA_OF_ASC_NODE":139.7076,"ARG_OF_PERICENTER":297.6573,"MEAN_ANOMALY":62.4049,"EPHEMERIS_TYPE":0,"CLASSIFICATION_TYPE":"U","NORAD_CAT_ID":59491,"ELEMENT_SET_NO":999,"REV_AT_EPOCH":7480,"BSTAR":-7.2945e-5,"MEAN_MOTION_DOT":-2.271e-5,"MEAN_MOTION_DDOT":0},{"OBJECT_NAME":"STARLINK-31684","OBJECT_ID":"2024-071J","EPOCH":"2025-08-04T06:05:35.765952","MEAN_MOTION":15.27588231,"ECCENTRICITY":0.0001365,"INCLINATION":43.0024,"RA_OF_ASC_NODE":135.3158,"ARG_OF_PERICENTER":265.5569,"MEAN_ANOMALY":94.5126,"EPHEMERIS_TYPE":0,"CLASSIFICATION_TYPE":"U","NORAD_CAT_ID":59492,"ELEMENT_SET_NO":999,"REV_AT_EPOCH":7486,"BSTAR":7.3284e-5,"MEAN_MOTION_DOT":1.755e-5,"MEAN_MOTION_DDOT":0},{"OBJECT_NAME":"STARLINK-31678","OBJECT_ID":"2024-071K","EPOCH":"2025-08-04T03:08:23.832960","MEAN_MOTION":15.27579114,"ECCENTRICITY":0.000162,"INCLINATION":43.0021,"RA_OF_ASC_NODE":136.1052,"ARG_OF_PERICENTER":235.6592,"MEAN_ANOMALY":124.4106,"EPHEMERIS_TYPE":0,"CLASSIFICATION_TYPE":"U","NORAD_CAT_ID":59493,"ELEMENT_SET_NO":999,"REV_AT_EPOCH":7366,"BSTAR":3.6793e-5,"MEAN_MOTION_DOT":7.5e-6,"MEAN_MOTION_DDOT":0},{"OBJECT_NAME":"STARLINK-31744","OBJECT_ID":"2024-071L","EPOCH":"2025-08-04T03:02:50.782560","MEAN_MOTION":15.27582321,"ECCENTRICITY":0.0001306,"INCLINATION":43.0019,"RA_OF_ASC_NODE":136.0792,"ARG_OF_PERICENTER":267.1402,"MEAN_ANOMALY":92.93,"EPHEMERIS_TYPE":0,"CLASSIFICATION_TYPE":"U","NORAD_CAT_ID":59494,"ELEMENT_SET_NO":999,"REV_AT_EPOCH":7484,"BSTAR":4.5079e-6,"MEAN_MOTION_DOT":-1.38e-6,"MEAN_MOTION_DDOT":0},{"OBJECT_NAME":"STARLINK-31719","OBJECT_ID":"2024-071M","EPOCH":"2025-08-04T03:42:53.246016","MEAN_MOTION":15.27579719,"ECCENTRICITY":0.0001425,"INCLINATION":43.002,"RA_OF_ASC_NODE":128.5104,"ARG_OF_PERICENTER":268.8894,"MEAN_ANOMALY":91.1794,"EPHEMERIS_TYPE":0,"CLASSIFICATION_TYPE":"U","NORAD_CAT_ID":59495,"ELEMENT_SET_NO":999,"REV_AT_EPOCH":7493,"BSTAR":3.8613e-5,"MEAN_MOTION_DOT":8.01e-6,"MEAN_MOTION_DDOT":0},{"OBJECT_NAME":"STARLINK-31728","OBJECT_ID":"2024-071N","EPOCH":"2025-08-04T01:39:07.909056","MEAN_MOTION":15.27578349,"ECCENTRICITY":0.0001484,"INCLINATION":42.9996,"RA_OF_ASC_NODE":128.7255,"ARG_OF_PERICENTER":266.6096,"MEAN_ANOMALY":93.4586,"EPHEMERIS_TYPE":0,"CLASSIFICATION_TYPE":"U","NORAD_CAT_ID":59496,"ELEMENT_SET_NO":999,"REV_AT_EPOCH":7492,"BSTAR":0.00049798,"MEAN_MOTION_DOT":0.00013466,"MEAN_MOTION_DDOT":0},{"OBJECT_NAME":"STARLINK-31720","OBJECT_ID":"2024-071P","EPOCH":"2025-08-04T02:32:47.011488","MEAN_MOTION":15.27580197,"ECCENTRICITY":0.0001258,"INCLINATION":43.0015,"RA_OF_ASC_NODE":129.0065,"ARG_OF_PERICENTER":277.5788,"MEAN_ANOMALY":82.492,"EPHEMERIS_TYPE":0,"CLASSIFICATION_TYPE":"U","NORAD_CAT_ID":59497,"ELEMENT_SET_NO":999,"REV_AT_EPOCH":7492,"BSTAR":3.3851e-5,"MEAN_MOTION_DOT":6.7e-6,"MEAN_MOTION_DDOT":0},{"OBJECT_NAME":"STARLINK-31731","OBJECT_ID":"2024-071Q","EPOCH":"2025-08-04T05:48:16.904448","MEAN_MOTION":15.27604696,"ECCENTRICITY":0.0001441,"INCLINATION":42.9987,"RA_OF_ASC_NODE":127.4393,"ARG_OF_PERICENTER":271.2021,"MEAN_ANOMALY":88.8666,"EPHEMERIS_TYPE":0,"CLASSIFICATION_TYPE":"U","NORAD_CAT_ID":59498,"ELEMENT_SET_NO":999,"REV_AT_EPOCH":7495,"BSTAR":0.0011572,"MEAN_MOTION_DOT":0.00031743,"MEAN_MOTION_DDOT":0},{"OBJECT_NAME":"STARLINK-31742","OBJECT_ID":"2024-071R","EPOCH":"2025-08-04T02:52:55.955712","MEAN_MOTION":15.27578788,"ECCENTRICITY":0.0001308,"INCLINATION":42.9944,"RA_OF_ASC_NODE":128.2468,"ARG_OF_PERICENTER":270.2644,"MEAN_ANOMALY":89.8058,"EPHEMERIS_TYPE":0,"CLASSIFICATION_TYPE":"U","NORAD_CAT_ID":59499,"ELEMENT_SET_NO":999,"REV_AT_EPOCH":7493,"BSTAR":6.4828e-5,"MEAN_MOTION_DOT":1.522e-5,"MEAN_MOTION_DDOT":0},{"OBJECT_NAME":"STARLINK-31512","OBJECT_ID":"2024-071S","EPOCH":"2025-08-04T14:56:27.792960","MEAN_MOTION":15.27576444,"ECCENTRICITY":7.45e-5,"INCLINATION":43.002,"RA_OF_ASC_NODE":85.4759,"ARG_OF_PERICENTER":312.4155,"MEAN_ANOMALY":47.6634,"EPHEMERIS_TYPE":0,"CLASSIFICATION_TYPE":"U","NORAD_CAT_ID":59500,"ELEMENT_SET_NO":999,"REV_AT_EPOCH":7546,"BSTAR":1.9262e-5,"MEAN_MOTION_DOT":2.68e-6,"MEAN_MOTION_DDOT":0},{"OBJECT_NAME":"STARLINK-31458","OBJECT_ID":"2024-071T","EPOCH":"2025-08-04T01:26:10.913856","MEAN_MOTION":15.27589374,"ECCENTRICITY":0.0001298,"INCLINATION":43.0006,"RA_OF_ASC_NODE":128.6591,"ARG_OF_PERICENTER":275.3686,"MEAN_ANOMALY":84.7017,"EPHEMERIS_TYPE":0,"CLASSIFICATION_TYPE":"U","NORAD_CAT_ID":59501,"ELEMENT_SET_NO":999,"REV_AT_EPOCH":7492,"BSTAR":-1.371e-5,"MEAN_MOTION_DOT":-6.39e-6,"MEAN_MOTION_DDOT":0},{"OBJECT_NAME":"STARLINK-31357","OBJECT_ID":"2024-071U","EPOCH":"2025-08-04T00:45:41.718240","MEAN_MOTION":15.27547872,"ECCENTRICITY":0.0001352,"INCLINATION":43.0013,"RA_OF_ASC_NODE":129.3056,"ARG_OF_PERICENTER":274.6212,"MEAN_ANOMALY":85.4485,"EPHEMERIS_TYPE":0,"CLASSIFICATION_TYPE":"U","NORAD_CAT_ID":59502,"ELEMENT_SET_NO":999,"REV_AT_EPOCH":7491,"BSTAR":9.7688e-5,"MEAN_MOTION_DOT":2.424e-5,"MEAN_MOTION_DDOT":0},{"OBJECT_NAME":"STARLINK-31508","OBJECT_ID":"2024-071V","EPOCH":"2025-08-04T03:59:31.947072","MEAN_MOTION":15.27581696,"ECCENTRICITY":0.0001127,"INCLINATION":43.0003,"RA_OF_ASC_NODE":128.5946,"ARG_OF_PERICENTER":273.0335,"MEAN_ANOMALY":87.0388,"EPHEMERIS_TYPE":0,"CLASSIFICATION_TYPE":"U","NORAD_CAT_ID":59503,"ELEMENT_SET_NO":999,"REV_AT_EPOCH":7493,"BSTAR":0.00020654,"MEAN_MOTION_DOT":5.426e-5,"MEAN_MOTION_DDOT":0},{"OBJECT_NAME":"STARLINK-31535","OBJECT_ID":"2024-071W","EPOCH":"2025-08-04T03:13:57.078624","MEAN_MOTION":15.27578836,"ECCENTRICITY":7.62e-5,"INCLINATION":43.0007,"RA_OF_ASC_NODE":136.1388,"ARG_OF_PERICENTER":252.6369,"MEAN_ANOMALY":107.4399,"EPHEMERIS_TYPE":0,"CLASSIFICATION_TYPE":"U","NORAD_CAT_ID":59504,"ELEMENT_SET_NO":999,"REV_AT_EPOCH":7484,"BSTAR":2.4156e-5,"MEAN_MOTION_DOT":4.03e-6,"MEAN_MOTION_DDOT":0},{"OBJECT_NAME":"STARLINK-31533","OBJECT_ID":"2024-071X","EPOCH":"2025-08-04T02:36:29.208960","MEAN_MOTION":15.27577914,"ECCENTRICITY":0.000128,"INCLINATION":43.0017,"RA_OF_ASC_NODE":129.0214,"ARG_OF_PERICENTER":274.5593,"MEAN_ANOMALY":85.5112,"EPHEMERIS_TYPE":0,"CLASSIFICATION_TYPE":"U","NORAD_CAT_ID":59505,"ELEMENT_SET_NO":999,"REV_AT_EPOCH":7492,"BSTAR":5.5498e-5,"MEAN_MOTION_DOT":1.265e-5,"MEAN_MOTION_DDOT":0},{"OBJECT_NAME":"STARLINK-31524","OBJECT_ID":"2024-071Y","EPOCH":"2025-08-04T03:34:58.953216","MEAN_MOTION":15.27580059,"ECCENTRICITY":0.0001515,"INCLINATION":43.0021,"RA_OF_ASC_NODE":121.3498,"ARG_OF_PERICENTER":261.3809,"MEAN_ANOMALY":98.6871,"EPHEMERIS_TYPE":0,"CLASSIFICATION_TYPE":"U","NORAD_CAT_ID":59506,"ELEMENT_SET_NO":999,"REV_AT_EPOCH":7501,"BSTAR":5.649e-5,"MEAN_MOTION_DOT":1.293e-5,"MEAN_MOTION_DDOT":0}]
