STARLINK-31670          
1 59490U 24071G   25216.14705741  .00000015  00000+0  10076-4 0  9999
2 59490  43.0030 139.7153 0001020 268.9503  91.1231 15.27580004 74802
STARLINK-31712          
1 59491U 24071H   25216.14832729 -.00002271  00000+0 -72945-4 0  9998
2 59491  43.0027 139.7076 0002256 297.6573  62.4049 15.27602430 74807
STARLINK-31684          
1 59492U 24071J   25216.25388618  .00001755  00000+0  73284-4 0  9995
2 59492  43.0024 135.3158 0001365 265.5569  94.5126 15.27588231 74867
STARLINK-31678          
1 59493U 24071K   25216.13083140  .00000750  00000+0  36793-4 0  9993
2 59493  43.0021 136.1052 0001620 235.6592 124.4106 15.27579114 73663
STARLINK-31744          
1 59494U 24071L   25216.12697665 -.00000138  00000+0  45079-5 0  9995
2 59494  43.0019 136.0792 0001306 267.1402  92.9300 15.27582321 74842
STARLINK-31719          
1 59495U 24071M   25216.15478294  .00000801  00000+0  38613-4 0  9995
2 59495  43.0020 128.5104 0001425 268.8894  91.1794 15.27579719 74938
STARLINK-31728          
1 59496U 24071N   25216.06884154  .00013466  00000+0  49798-3 0  9998
2 59496  42.9996 128.7255 0001484 266.6096  93.4586 15.27578349 74924
STARLINK-31720          
1 59497U 24071P   25216.10609967  .00000670  00000+0  33851-4 0  9998
2 59497  43.0015 129.0065 0001258 277.5788  82.4920 15.27580197 74924
STARLINK-31731          
1 59498U 24071Q   25216.24186232  .00031743  00000+0  11572-2 0  9998
2 59498  42.9987 127.4393 0001441 271.2021  88.8666 15.27604696 74953
STARLINK-31742          
1 59499U 24071R   25216.12009208  .00001522  00000+0  64828-4 0  9999
2 59499  42.9944 128.2468 0001308 270.2644  89.8058 15.27578788 74937
STARLINK-31512          
1 59500U 24071S   25216.62254390  .00000268  00000+0  19262-4 0  9999
2 59500  43.0020  85.4759 0000745 312.4155  47.6634 15.27576444 75462
STARLINK-31458          
1 59501U 24071T   25216.05984854 -.00000639  00000+0 -13710-4 0  9998
2 59501  43.0006 128.6591 0001298 275.3686  84.7017 15.27589374 74924
STARLINK-31357          
1 59502U 24071U   25216.03173285  .00002424  00000+0  97688-4 0  9993
2 59502  43.0013 129.3056 0001352 274.6212  85.4485 15.27547872 74918
STARLINK-31508          
1 59503U 24071V   25216.16634198  .00005426  00000+0  20654-3 0  9996
2 59503  43.0003 128.5946 0001127 273.0335  87.0388 15.27581696 74930
STARLINK-31535          
1 59504U 24071W   25216.13468841  .00000403  00000+0  24156-4 0  9996
2 59504  43.0007 136.1388 0000762 252.6369 107.4399 15.27578836 74845
STARLINK-31533          
1 59505U 24071X   25216.10867140  .00001265  00000+0  55498-4 0  9999
2 59505  43.0017 129.0214 0001280 274.5593  85.5112 15.27577914 74928
STARLINK-31524          
1 59506U 24071Y   25216.14929344  .00001293  00000+0  56490-4 0  9993
2 59506  43.0021 121.3498 0001515 261.3809  98.6871 15.27580059 75010
